[{"OBJECT_NAME":"OBJECT E","OBJECT_ID":"2025-180E","EPOCH":"2026-03-09T22:54:04.174272","MEAN_MOTION":15.16352098,"ECCENTRICITY":0.000156,"INCLINATION":97.4787,"RA_OF_ASC_NODE":197.4233,"ARG_OF_PERICENTER":89.7042,"MEAN_ANOMALY":270.437,"EPHEMERIS_TYPE":0,"CLASSIFICATION_TYPE":"U","NORAD_CAT_ID":65263,"ELEMENT_SET_NO":999,"REV_AT_EPOCH":3068,"BSTAR":0.00035109003,"MEAN_MOTION_DOT":6.746e-5,"MEAN_MOTION_DDOT":0},{"OBJECT_NAME":"CONNECTA IOT-13","OBJECT_ID":"2026-004AP","EPOCH":"2026-03-09T21:30:41.110560","MEAN_MOTION":15.17636182,"ECCENTRICITY":0.00083464,"INCLINATION":97.4574,"RA_OF_ASC_NODE":69.4172,"ARG_OF_PERICENTER":345.5859,"MEAN_ANOMALY":14.5136,"EPHEMERIS_TYPE":0,"CLASSIFICATION_TYPE":"U","NORAD_CAT_ID":67400,"ELEMENT_SET_NO":999,"REV_AT_EPOCH":869,"BSTAR":0.00022273325,"MEAN_MOTION_DOT":4.418e-5,"MEAN_MOTION_DDOT":0}]
